KUIPER-00061            
1 64521U 25134X   26013.53122064 -.00004797  00000+0 -60082-3 0  9995
2 64521  51.9004 111.9953 0000358  30.2321 329.8662 14.79922717 31969
KUIPER-00062            
1 64522U 25134Y   26013.58064041  .00002247  00000+0  28684-3 0  9999
2 64522  51.8963 115.5794 0007423 106.8964 253.2815 14.85130874 31938
KUIPER-00063            
1 64523U 25134Z   26013.58798249 -.00000320  00000+0 -12989-4 0  9998
2 64523  51.9015 121.7463 0000638  30.2571 329.8428 14.79902206 31844
KUIPER-00064            
1 64524U 25134AA  26013.59064252  .00003286  00000+0  45975-3 0  9992
2 64524  51.9021 119.1548 0006748 169.8062 190.3038 14.79949611 31882
KUIPER-00065            
1 64525U 25134AB  26013.58478284  .00003102  00000+0  43496-3 0  9999
2 64525  51.9024 124.3293 0005993 103.4712 256.6919 14.80011218 31797
KUIPER-00066            
1 64526U 25134AC  26013.49835060  .00007509  00000+0  34053-3 0  9993
2 64526  51.8880  84.8700 0000934  43.1874 316.9180 15.21782253 32352
KUIPER-00069            
1 64816U 25151A   26013.40709323  .00002957  00000+0  41663-3 0  9994
2 64816  51.8999 165.0738 0003853 111.0273 249.1101 14.79945163 28571
KUIPER-00070            
1 64817U 25151B   26013.21132286 -.00004951  00000+0 -61988-3 0  9992
2 64817  51.8978 190.8876 0011162  76.9742 283.2465 14.79925191 28201
